[{"OBJECT_NAME":"STARLINK-2094","OBJECT_ID":"2021-005AC","EPOCH":"2026-03-09T22:00:01.999584","MEAN_MOTION":15.1057612,"ECCENTRICITY":0.00015618,"INCLINATION":53.0714,"RA_OF_ASC_NODE":60.5643,"ARG_OF_PERICENTER":87.5048,"MEAN_ANOMALY":287.6905,"EPHEMERIS_TYPE":0,"CLASSIFICATION_TYPE":"U","NORAD_CAT_ID":47375,"ELEMENT_SET_NO":999,"REV_AT_EPOCH":572,"BSTAR":0.052663028,"MEAN_MOTION_DOT":0.00941976,"MEAN_MOTION_DDOT":0},{"OBJECT_NAME":"BANDWAGON-4 OBJECT D","OBJECT_ID":"2025-248D","EPOCH":"2026-03-08T15:55:23.357856","MEAN_MOTION":15.20246176,"ECCENTRICITY":0.0005553,"INCLINATION":45.4053,"RA_OF_ASC_NODE":299.733,"ARG_OF_PERICENTER":216.9625,"MEAN_ANOMALY":143.088,"EPHEMERIS_TYPE":0,"CLASSIFICATION_TYPE":"U","NORAD_CAT_ID":66296,"ELEMENT_SET_NO":999,"REV_AT_EPOCH":1922,"BSTAR":0.00048956709,"MEAN_MOTION_DOT":0.00010544,"MEAN_MOTION_DDOT":0}]
